IRIDIUM 119             
1 42959U 17061E   25205.42396688  .00000011  00000+0 -31322-5 0  9992
2 42959  86.4019 162.2446 0002324  79.8109 280.3349 14.34217674407839
IRIDIUM 107             
1 42960U 17061F   25205.58252818  .00000150  00000+0  46414-4 0  9997
2 42960  86.4019 162.1979 0001910  77.7904 282.3506 14.34217380407865
IRIDIUM 132             
1 42961U 17061G   25205.58887378  .00000033  00000+0  46537-5 0  9990
2 42961  86.4018 162.1771 0002165  84.6852 275.4591 14.34217634407866
IRIDIUM 136             
1 42962U 17061H   25205.62058699  .00000015  00000+0 -16902-5 0  9996
2 42962  86.4018 162.1689 0002232  79.5122 280.6325 14.34217720407884
IRIDIUM 139             
1 42963U 17061J   25205.34785483  .00000047  00000+0  98093-5 0  9999
2 42963  86.4021 162.3393 0002023  82.7287 277.4139 14.34217928407853
IRIDIUM 125             
1 42964U 17061K   25205.61424415  .00000017  00000+0 -11130-5 0  9990
2 42964  86.4021 162.2830 0002230  69.7962 290.3473 14.34217742407909
IRIDIUM 135             
1 43070U 17083A   25205.23952782  .00000040  00000+0  72079-5 0  9998
2 43070  86.3954  99.1341 0002262  89.7478 270.3977 14.34217724397147
IRIDIUM 138             
1 43071U 17083B   25205.19513016  .00000045  00000+0  90971-5 0  9993
2 43071  86.3944  98.8186 0002544  75.4040 284.7438 14.34217752397120
